0 FENGYUN 1C DEB
1 30922U 99025AZL 13282.25921302  .00000789  00000-0  47676-3 0  3453
2 30922 099.0316 289.4410 0015963 059.4910 357.5186 14.09516105338197
0 FENGYUN 1C DEB
1 30922U 99025AZL 13283.83393813  .00000632  00000-0  38673-3 0  3463
2 30922 099.0314 291.0204 0015915 055.2661 067.8838 14.09519662338410
0 FENGYUN 1C DEB
1 30922U 99025AZL 13285.24086927  .00000592  00000-0  36380-3 0  3474
2 30922 099.0311 292.4315 0015854 051.4758 006.8769 14.09521386338616
0 FENGYUN 1C DEB
1 30922U 99025AZL 13286.53289094  .00000668  00000-0  40735-3 0  3481
2 30922 099.0310 293.7274 0015802 047.9351 082.8736 14.09522763338792
0 FENGYUN 1C DEB
1 30922U 99025AZL 13287.80928418  .00000952  00000-0  56935-3 0  3498
2 30922 099.0308 295.0074 0015744 044.4866 079.5287 14.09524834338975
0 FENGYUN 1C DEB
1 30922U 99025AZL 13288.87336986  .00001103  00000-0  65556-3 0  3509
2 30922 099.0308 296.0743 0015673 041.5830 078.9349 14.09526385339122
0 FENGYUN 1C DEB
1 30922U 99025AZL 13289.99603363  .00001104  00000-0  65614-3 0  3516
2 30922 099.0309 297.2001 0015604 038.4845 015.6174 14.09528545339289
0 FENGYUN 1C DEB
1 30922U 99025AZL 13291.50632946  .00001102  00000-0  65518-3 0  3527
2 30922 099.0311 298.7145 0015521 034.3371 119.2357 14.09532171339491
0 FENGYUN 1C DEB
1 30922U 99025AZL 13292.84894942  .00001124  00000-0  66762-3 0  3538
2 30922 099.0312 300.0608 0015461 030.6813 092.0081 14.09535541339683
0 FENGYUN 1C DEB
1 30922U 99025AZL 13294.55325373  .00000937  00000-0  56066-3 0  3543
2 30922 099.0313 301.7699 0015393 026.0129 100.0982 14.09541336339921
0 FENGYUN 1C DEB
1 30922U 99025AZL 13295.83033830  .00000973  00000-0  58156-3 0  3552
2 30922 099.0313 303.0507 0015331 022.4705 100.4321 14.09544071340108
